GLOBALSTAR M035         
1 25851U 99037A   25012.85921873 -.00000073  00000+0 -33696-3 0  9993
2 25851  51.9972  41.3608 0013808  91.7214 101.0364 11.04535714 79093
GLOBALSTAR M032         
1 25852U 99037B   25012.81952984 -.00000059  00000+0  23304-3 0  9995
2 25852  51.9924 237.3672 0009912 268.7378  91.2286 11.19055440117395
GLOBALSTAR M030         
1 25854U 99037D   25012.84059362 -.00000033  00000+0  88561-3 0  9996
2 25854  51.9845 231.6312 0004495 118.8597 241.2671 11.55103472132094
GLOBALSTAR M026         
1 25873U 99041B   25012.73505017 -.00000143  00000+0 -29235-2 0  9998
2 25873  51.9980 161.2311 0001565  40.4326  64.7829 11.06825810131272
GLOBALSTAR M043         
1 25874U 99041C   25012.89980230 -.00000040  00000+0  83670-3 0  9999
2 25874  51.9409  85.9901 0013241  50.8289 122.2105 11.25690059105389
GLOBALSTAR M028         
1 25875U 99041D   25012.86011366 -.00000064  00000+0  23670-3 0  9992
2 25875  51.9633 296.2228 0063851  93.7289 267.0876 12.50574348170742
